GAOFEN-3                
1 41727U 16049A   26181.89019681 -.00000187  00000+0 -43623-4 0  9990
2 41727  98.4006 189.4689 0001650  95.1551 264.9827 14.42216430520623
SKYSAT-C4               
1 41771U 16058B   26181.51248890  .00015921  00000+0  29562-3 0  9999
2 41771  96.9164 202.7293 0002454 138.5332 221.6106 15.48999706547532
SKYSAT-C5               
1 41772U 16058C   26181.08033837  .00008047  00000+0  24184-3 0  9991
2 41772  97.0461 221.1459 0001597 201.4188 158.6990 15.34650353545726
SKYSAT-C2               
1 41773U 16058D   26181.49582062  .00011718  00000+0  27333-3 0  9994
2 41773  97.0157 203.0914 0003374  40.8132 319.3368 15.42367359547102
SKYSAT-C3               
1 41774U 16058E   26181.03192938  .00024636  00000+0  39473-3 0  9995
2 41774  96.9001 211.3879 0001323 127.9832 232.1542 15.53084147548107
ALSAT-1B                
1 41785U 16059C   26181.83281740 -.00000025  00000+0  34436-5 0  9999
2 41785  97.7744 190.0074 0009176 173.0918 187.0418 14.72283376522582
PATHFINDER 1            
1 41787U 16059E   26181.43096611  .00000604  00000+0  11372-3 0  9992
2 41787  97.8168 180.1096 0028889 161.2255 199.0023 14.67677808521657
SCATSAT 1               
1 41790U 16059H   26181.60397769  .00001282  00000+0  17466-3 0  9996
2 41790  98.1187 245.5084 0054136 203.5185 156.3550 14.79555315103574
GOKTURK 1A              
1 41875U 16073A   26181.85809206  .00000168  00000+0  42033-4 0  9998
2 41875  98.1242  76.3182 0001417  78.4623 281.6738 14.62783205510822
RESOURCESAT-2A          
1 41877U 16074A   26181.86571951 -.00000139  00000+0 -43296-4 0  9997
2 41877  98.7531 255.2580 0003110  57.2449 302.9027 14.21604242496249
CARTOSAT-2D             
1 41948U 17008A   26181.85810622  .00002188  00000+0  10683-3 0  9991
2 41948  97.4101 240.9087 0005036 179.6182 180.5058 15.19303742519656
SENTINEL-2B             
1 42063U 17013A   26181.84384449 -.00000170  00000+0 -48331-4 0  9991
2 42063  98.5696 256.4254 0001214  89.8195 270.3127 14.30819528486591
CARTOSAT-2E             
1 42767U 17036C   26181.81002545  .00003499  00000+0  16914-3 0  9994
2 42767  97.4271 241.3875 0002265 248.1975 111.9019 15.19267694500219
FORMOSAT-5              
1 42920U 17049A   26181.77657791  .00000151  00000+0  49394-4 0  9994
2 42920  98.2253 256.7843 0012246  46.3964 313.8245 14.50903575468643
SENTINEL-5P             
1 42969U 17064A   26181.45323956  .00000049  00000+0  44252-4 0  9996
2 42969  98.7927 123.4903 0001029  90.4349 269.6945 14.19521106451446
SKYSAT-C11              
1 42987U 17068A   26181.41472077  .00025436  00000+0  33325-3 0  9990
2 42987  97.4360 330.8281 0000460 142.6287 217.5001 15.58573090485305
SKYSAT-C10              
1 42988U 17068B   26181.33230377  .00008604  00000+0  25699-3 0  9990
2 42988  97.4521 318.3095 0001239 107.6349 252.5030 15.34853086484371
SKYSAT-C9               
1 42989U 17068C   26181.34979891  .00011811  00000+0  27976-3 0  9997
2 42989  97.4443 319.3885 0009459  91.7825 268.4506 15.41880018484789
SKYSAT-C8               
1 42990U 17068D   26181.34863982  .00009597  00000+0  26548-3 0  9994
2 42990  97.4538 318.1764 0001322  94.7632 265.3763 15.37226278484338
SKYSAT-C7               
1 42991U 17068E   26181.79834134  .00010284  00000+0  28444-3 0  9993
2 42991  97.4553 319.6226 0006794  67.1516 293.0445 15.37188524484468
SKYSAT-C6               
1 42992U 17068F   26181.32201148  .00008746  00000+0  26665-3 0  9999
2 42992  97.4585 319.0580 0005218 115.4010 244.7773 15.34183874484330
CARTOSAT-2F             
1 43111U 18004A   26181.84231527  .00003924  00000+0  18989-3 0  9998
2 43111  97.4781 241.3441 0001408 166.8500 193.2771 15.19167929469409
GAOFEN-1 02             
1 43259U 18031A   26181.85281249  .00000215  00000+0  38271-4 0  9995
2 43259  98.0526 244.3408 0002452 353.6667   6.4511 14.76451986444717
GAOFEN-1 03             
1 43260U 18031B   26181.89858881  .00000752  00000+0  11552-3 0  9991
2 43260  98.0512 244.2440 0003411  50.7488 309.4024 14.76444816444710
GAOFEN-1 04             
1 43262U 18031D   26181.87437378  .00000727  00000+0  11198-3 0  9993
2 43262  98.0527 244.4120 0001864  63.1381 297.0019 14.76452825444709
SENTINEL-3B             
1 43437U 18039A   26181.65464719  .00000111  00000+0  63993-4 0  9998
2 43437  98.6244 248.9934 0000815 113.9618 246.1648 14.26738462426048
GAOFEN-5 01             
1 43461U 18043A   26181.48869444  .00000323  00000+0  76568-4 0  9992
2 43461  98.4578 153.3547 0002783  59.6365 300.5110 14.60614488433634
GAOFEN-6                
1 43484U 18048A   26181.89608990 -.00000142  00000+0 -12942-4 0  9991
2 43484  98.0970 244.5632 0011844 121.7880 238.4485 14.76365860435416
GAOFEN-11 01            
1 43585U 18063A   26181.87601535  .00011709  00000+0  17182-3 0  9995
2 43585  97.1291 248.7186 0002091 281.0530  79.0490 15.55671837442471
ICESAT-2                
1 43613U 18070A   26181.77460986  .00009549  00000+0  34669-3 0  9995
2 43613  92.0094 294.6499 0006190  89.0152 271.1806 15.28263881434535
